#aV2010 12 27  0  0   .00000000      96 DD+AD WGS84 FIT  NGA
## 1616  86400.00000000   900.00000000 55557  .0000000000000
+   32     1  2  3  4  5  6  7  8  9 10 11 12 13 14 15 16 17
+         18 19 20 21 22 23 24 25 26 27 28 29 30 31 32  0  0
+          0  0  0  0  0  0  0  0  0  0  0  0  0  0  0  0  0
+          0  0  0  0  0  0  0  0  0  0  0  0  0  0  0  0  0
+          0  0  0  0  0  0  0  0  0  0  0  0  0  0  0  0  0
++         0  0  0  0  0  0  0  0  0  0  0  0  0  0  0  0  0
++         0  0  0  0  0  0  0  0  0  0  0  0  0  0  0  0  0
++         0  0  0  0  0  0  0  0  0  0  0  0  0  0  0  0  0
++         0  0  0  0  0  0  0  0  0  0  0  0  0  0  0  0  0
++         0  0  0  0  0  0  0  0  0  0  0  0  0  0  0  0  0
%c cc cc ccc ccc cccc cccc cccc cccc ccccc ccccc ccccc ccccc
%c cc cc ccc ccc cccc cccc cccc cccc ccccc ccccc ccccc ccccc
%f  0.0000000  0.000000000  0.00000000000  0.000000000000000
%f  0.0000000  0.000000000  0.00000000000  0.000000000000000
%i    0    0    0    0      0      0      0      0         0
%i    0    0    0    0      0      0      0      0         0
/*      NGA, ST. LOUIS,MO.                                  
/*   EPHEMERIS COMPUTED FROM  3 DAYS OF DATA                
/* CCCCCCCCCCCCCCCCCCCCCCCCCCCCCCCCCCCCCCCCCCCCCCCCCCCCCCCCC
/* CCCCCCCCCCCCCCCCCCCCCCCCCCCCCCCCCCCCCCCCCCCCCCCCCCCCCCCCC
*  2010 12 27 17 15   .00000000                                                 
P  1  -7013.879614  20670.268501  14926.786339   -194.985004                    
V  1  -5117.516906 -18608.023672  23313.011572      -.033011                    
P  2   1078.945552 -16082.498487  21170.685787    311.198092                    
V  2  25416.583408   8779.260053   4902.289399       .022826                    
P  3  -4764.566652  21428.534649 -15125.573347    654.462052                    
V  3 -14958.110568  11623.362260  22088.224595       .052426                    
P  4  13480.819721 -10664.823846  20126.514998    255.799245                    
V  4  23943.738018  10207.121833 -10168.103357       .098008                    
P  5  -1718.811828 -26192.039918   3654.514785    -89.539739                    
V  5   3745.719455   4121.813843  31261.739958      -.059554                    
P  6 -10360.721030  21205.951153 -11830.887539    381.742292                    
V  6 -13545.689830   7989.167059  26022.333712      -.077187                    
P  7  25342.816483   4916.096260  -6676.469734       .933040                    
V  7   7088.059751   5038.516902  30391.999655       .005055                    
P  8  20987.346945  -1929.231558 -16479.833661      7.091163                    
V  8  18338.014488   9577.584742  21679.709450       .000830                    
P  9 -18463.569302 -15135.950647 -12191.940781     51.532871                    
V  9  14307.724198   3311.751608 -26975.240746       .024673                    
P 10   8832.155747 -18955.597436  15949.072203    -61.567183                    
V 10   5258.552242  20270.260613  21279.091238      -.011081                    
P 11  21317.316134  11761.385708 -11319.736428   -114.605692                    
V 11 -14351.517263   2267.702209 -25007.485259      -.029536                    
P 12 -11003.003789 -21445.780013  11362.713997    -41.058144                    
V 12   -182.600530 -14430.942780 -27345.342159       .033928                    
P 13  21023.169253  -1884.924830  16016.230522    287.790855                    
V 13 -16081.781823  12790.617460  22380.798214      -.011882                    
P 14 -21576.159898  15344.753441   -564.501891    119.056261                    
V 14   -556.626444  -2300.642444 -32348.709598       .030674                    
P 15  -8495.819804 -12938.196244 -21562.984130   -167.449516                    
V 15  21130.413672 -17531.989422   2343.761310       .040487                    
P 16  -2008.476573  25181.667492   7749.787295   -137.870683                    
V 16  -3703.659824  -9457.827998  30168.388925      -.031202                    
P 17  21875.749394 -14588.092451  -2639.153799    180.559910                    
V 17   -940.939141   4526.489348 -31665.847763       .008070                    
P 18 -15797.180468   -570.704794 -21073.453446    112.637227                    
V 18  -3688.941632 -27277.263150   3087.747753       .021236                    
P 19   3950.875718  15394.886896 -21226.906328    -95.954454                    
V 19 -22679.010784  14722.907627   6779.349208      -.035099                    
P 20  13914.277645  17899.803419  13749.468168     48.940066                    
V 20    746.022977  17935.893595 -23787.506393      -.001307                    
P 21 -25425.332980  -4100.547956  -7317.401305   -112.409298                    
V 21  -7880.003004  -6384.213255  28840.308291      -.027245                    
P 22 -12596.462300  13005.192979 -19237.386084    156.223869                    
V 22  -5070.410194 -24448.594203 -13186.012130      -.008172                    
P 23  14105.939676   7525.163656  21259.519599    335.685649                    
V 23 -20724.701219  17194.581882   7337.321643      -.022146                    
P 24  19774.586953  15616.538797  -8803.837384    351.499587                    
V 24 -11329.080077  -2014.626395 -28579.067837       .033177                    
P 25 -15536.577782  -8219.541521  19896.558036    -60.296255                    
V 25  -3307.099677 -25102.120648 -12944.758340      -.022104                    
P 26   5146.042614 -18603.430548 -18620.868693    -82.133804                    
V 26  19119.597965 -12050.935443  18287.173862      -.088381                    
P 27 -14041.652441 -15634.905609 -15719.438835    221.079034                    
V 27  20540.797882   4994.240007 -22117.971016       .037704                    
P 28  13123.276536  -8943.650725 -20735.154297     11.500980                    
V 28   4254.414316  27206.677310  -9102.287031       .018139                    
P 29 -20056.338237    -78.493313  17469.795410    173.701491                    
V 29  16531.391030 -14682.535476  19033.749700       .028426                    
P 30  -8460.959022  18139.188342  17058.617273    308.429242                    
V 30  -6397.273614 -21617.159249  19347.502373       .031973                    
P 31 -10957.884551  11352.138187  21610.102356     23.171291                    
V 31 -24897.132177 -10055.697993  -7227.492473       .040518                    
P 32   7531.624104  24486.297416   8052.341650   -162.342096                    
V 32  -1627.705986   9861.532021 -29200.834768      -.082196                    
EOF
